#dP2023  6 15 18  0  0.00000000      96 __u+U ITR00 EXT  IAC
## 2266 410400.00000000   900.00000000 60110 0.7500000000000
+  119   C06C07C08C09C10C11C12C13C14C16C19C20C21C22C23C24C25
+        C26C27C28C29C30C32C33C34C35C36C37C38C39C40C41C42C43
+        C44C45C46E02E03E04E05E07E08E09E10E11E12E13E14E15E18
+        E19E21E24E25E26E27E30E31E33E34E36G01G02G03G04G05G06
+        G07G08G09G10G11G12G13G14G15G16G17G18G19G20G21G22G23
+        G24G25G26G27G28G29G30G31G32J02J03J04R01R02R03R04R05
+        R07R08R09R11R12R13R14R15R16R17R18R19R20R21R22R24R25
++         9 11 10  9 10 10  8 10  9  9 10  8  7  7  7  7  8
++         8  7  8  9  8  7  7  8  7 10  8  8 10 10  8 10  7
++         8 10  7  7  8  7  7  8  8  8  6  8  7  7  7  7  7
++         8  7  9  6  6  7  8  8  7  7  7  7  7  7  8  7  8
++         6  6  7  7  9  7  6  7  6  7  6  8  7  7  7  7  7
++         7  6  7  6  6  6  7  6  7  8  9 10  9  8  7  7  8
++         7  7  8  8  8  9  8  7  8  7  7  9  9  7  9  7  7
%c M  cc GPS ccc cccc cccc cccc cccc ccccc ccccc ccccc ccccc
%c cc cc ccc ccc cccc cccc cccc cccc ccccc ccccc ccccc ccccc
%f  0.0000000  0.000000000  0.00000000000  0.000000000000000
%f  0.0000000  0.000000000  0.00000000000  0.000000000000000
%i    0    0    0    0      0      0      0      0         0
%i    0    0    0    0      0      0      0      0         0
/* IAC                                ULTRA-RAPID PREDICTION
/* S/V CLOCKS ARE ALIGNED TO GNSS TIME                      
/* G:C1WC2W R:C1PC2P E:C1XC5X C:C2IC6I J:C1CC2S             
/* PCV:IGS20_2247 OL/AL:FES2004  NONE     YN ORB:CoN CLK:CoN
*  2023 06 16  0 15  0.00000000
PC06  -6218.564659  39405.243712 -13144.029147   -177.260515
PC07  -6879.920318  26504.986774  32123.418670   -178.446011
PC08 -19207.568512  30169.674147 -22495.603043    458.147631
PC09   -241.240471  41734.072345  -2644.033989    529.725032
PC10   1894.201343  28480.076216  31437.184323    -87.124399
PC11   8385.629686 -17827.946411 -19694.224986    676.244269
PC12  16251.042633   2015.480046 -22567.141412    715.716334
PC13 -11488.323729  30234.162140 -27055.636550    297.012458
PC14  15828.485723 -10868.245831  20290.034991    416.100776
PC16  -6882.881522  38638.752731 -14777.295345     41.639134
PC19  -5470.744428  14811.461195 -22982.972288   -923.853952
PC20 -22267.070996   6167.991948 -15609.591429    500.499246
PC21  26974.714067   6974.368202  -1843.548444   -923.876683
PC22  15360.386164  15408.955503 -17495.311914   -439.170195
PC23  -3601.735527 -18341.433222 -20711.350617   -959.160822
PC24  21994.555251 -14406.374452   9316.219207     66.831249
PC25  11784.644996 -23653.179368  -8944.620150    148.183948
PC26  18567.302906   1297.919106  20770.889315   -135.304934
PC27 -17279.061486 -11042.816618  18907.043340    155.740948
PC28 -11789.867617 -24686.287867   5497.642880    115.699220
PC29   -896.001330  24620.893331  13096.153945    134.573585
PC30 -13558.367196   9065.725962  22629.405142     -1.233734
PC32 -26974.727957  -6834.011154   1968.617939   -548.481272
PC33   5555.874902 -14844.770756  22973.302306   -896.005749
PC34  12936.849657 -10524.142446 -22393.298032    193.982708
PC35  12410.968865  24480.113811  -4958.533496    607.168589
PC36 -12902.315154  23324.899570   8294.309229   -381.113008
PC37 -17976.698550  -2745.657808 -21155.703799   -785.877340
PC38 -23975.374666  31416.031762 -14880.267189     85.374997
PC39  -8192.261662  36116.550077 -19860.498300     -3.333158
PC40 -10435.301816  20671.580347  35229.921162    -26.363257
PC41 -14675.462679 -15557.371480  17971.003144   -920.492991
PC42  23213.667805  -5380.015379  14593.242365   -647.991963
PC43   1650.287535 -24251.169813 -13739.004415     26.370283
PC44  17798.405125  10491.780922 -18762.779462    139.362644
PC45   3952.496937  17970.732857  20990.474530   -110.833917
PC46 -21761.853674  15548.363006  -8023.696641    -61.814622
PE02  10074.125358  14196.871734  23937.524392     44.279915
PE03  17163.909974  23128.200904  -6865.065515    -26.766390
PE04 -24386.219293 -12387.208669 -11296.835057   -145.668454
PE05   -290.007242  20492.040933 -21351.699411    -57.630412
PE07  17609.510954  -5622.430988  23131.768366    -52.954924
PE08  24368.713498  12666.341791  11067.271588    -99.611852
PE09 -17594.140133   5411.413833 -23168.639867    -51.520178
PE10 -16979.541069   5925.391083  23497.206700   -541.505302
PE11 -16163.147914  17070.465699  17960.044538   2232.502800
PE12 -15251.267775  -5246.373378  24810.098115   -581.313574
PE13  16255.661238 -16399.562220 -18528.159099    -19.275452
PE14 -11194.394317 -21711.459275  -6849.862735    255.226261
PE15  15087.038480   5583.446000 -24848.832798    -29.772965
PE18  23072.348150  21053.363937  -4975.788615    186.512110
PE19 -15196.828985 -23640.650705   9301.140070  -2290.680077
PE21  10862.563692 -17987.251741 -20848.328989   -535.226263
PE24 -27015.985352  11102.521826   4843.627698   -157.184464
PE25 -11222.915989  17968.969430  20678.233889   -606.822450
PE26   7483.742195 -28630.308109   -691.545760    135.271025
PE27  26671.154147 -11582.418854  -5524.028286    -75.665781
PE30  26366.074179   2057.514754  13280.783886   -258.687742
PE31 -26604.727776  -1562.066351 -12872.016686   -525.973665
PE33  -5014.175669 -24099.176091  16442.537248   -443.110780
PE34   5168.714425  23989.146026 -16569.758942    -51.030156
PE36  -7888.298316  28488.594208   1436.808429    -71.856171
PG01 -13800.738362  19014.623843  11695.068964    178.152595
PG02 -14912.686248  14176.705689  17218.612760   -585.416192
PG03 -20314.455075  12883.699011 -11259.763957   -268.999134
PG04  -9932.363261  11567.032172 -21729.783541     69.396971
PG05  25856.826345  -4295.522253  -4840.573709   -131.261858
PG06   7177.874810  17896.720371 -18163.027915    584.809009
PG07  -5351.157842  25645.906804   2694.670472    151.243520
PG08 -18548.890455    625.046105  19070.094953   -127.592098
PG09     82.703520  18765.284835 -18851.271862   -134.842151
PG10  -9338.212479 -12627.549369  21643.288394    -41.321733
PG11  14938.047934   2864.458584 -21765.026816   -237.121545
PG12  22921.346508 -10270.674155  -8784.360230   -389.074079
PG13  19602.234887   8492.029362  15736.459556    534.529652
PG14   5679.960489  14538.576955  21514.261283     91.889817
PG15  18192.628041  -3433.039711  18673.886607     49.219901
PG16 -25621.529404  -1502.998947  -7993.929687   -491.066367
PG17  12465.143869  22313.205407   7445.774666    718.475201
PG18   4080.469269 -25627.913728   5242.114571   -309.128908
PG19  17165.154356  20463.223354  -1324.810049    331.111279
PG20  22637.901463    733.572664 -13682.158475    427.795093
PG21 -15547.006335  10380.476014  19057.959192    153.066544
PG22 -18491.590569 -18792.489799  -3396.155183    498.467652
PG23   4599.191467 -15917.628282  20725.790931     33.571533
PG24  14433.995585 -15726.124493  15176.448767   -226.184988
PG25  12454.900327 -16021.975109 -17309.677109    450.054219
PG26 -18987.053132  -7309.547496 -17363.382896    238.945484
PG27 -21527.194826 -10558.240725  11607.989369     15.717727
PG28  -7173.771722 -19435.175164 -16644.912355     83.290312
PG29   3261.060314 -17208.379841 -19993.347620   -602.913106
PG30   2065.999887  23668.390678  11710.180156   -510.774600
PG31 -13540.489508  -7945.007213 -21554.360581   -218.244278
PG32 -15696.895593 -20983.933154   5121.679208   -501.064289
PJ02 -31198.937309  25293.133347  17775.561062     -0.564750
PJ03 -26749.162174  27133.018970  23055.120181      6.624444
PJ04 -29788.180787  19930.880920 -16990.473305     95.445414
PR01  15488.072616  13592.113805 -15042.690797     59.509763
PR02  23798.010109   8738.705107   2556.900535    -22.698062
PR03  18142.625477  -1651.196621  17876.428146     79.754210
PR04   2620.678302 -10552.997024  23105.851940    191.360027
PR05 -14295.022145 -14034.147699  15818.006971    114.229547
PR07 -17658.330374   2029.888993 -18273.872724     58.128679
PR08  -2409.669561  10712.153674 -22961.623357    -71.284076
PR09 -17056.278579   1893.007812 -18818.063679    126.016015
PR11 -13814.790523  18020.537743  11616.590753    -80.631972
PR12   2865.249985  11510.824450  22611.729844     28.180566
PR13  15844.934873   -388.710551  19976.615883    -36.135577
PR14  20975.097020 -13847.467798   4438.955971     24.792372
PR15  13074.149230 -17886.068396 -12626.954969     88.572154
PR16  -2527.493464 -11579.108278 -22578.968640     15.682725
PR17   8777.853113  -9803.855722 -21842.134834    639.369092
PR18   2237.778422 -22965.919604 -10920.173678     86.802540
PR19  -4095.320971 -24818.122142   4218.658576   -236.416761
PR20 -10210.482655 -10713.151269  20788.196583    -94.814031
PR21  -8345.276355  11210.784179  21337.751004    -15.532695
PR22  -2777.528281  23294.957842  10021.290504     81.262546
PR24  11053.449408   9641.745432 -20864.161665    -12.012280
PR25  -9528.584988   9357.317252  21736.846146     59.306569
EOF
